AQUA                    
1 27424U 02022A   26070.94175160  .00001189  00000+0  24717-3 0  9995
2 27424  98.4177  38.3477 0000561  89.2450 324.7525 14.61982815269065
CZ-4B R/B               
1 27432U 02024C   26070.78004838  .00000047  00000+0  47285-4 0  9999
2 27432  98.8835 124.1762 0050384  18.2883  92.6866 14.14547983229538
MIDORI II (ADEOS-II)    
1 27597U 02056A   26070.90384749  .00000364  00000+0  16071-3 0  9992
2 27597  98.7769  29.3966 0001508  40.3821 319.7472 14.29287029210612
H-2A R/B                
1 27601U 02056E   26070.86961987  .00000303  00000+0  12062-3 0  9997
2 27601  98.3205  31.1522 0070632 154.2148 261.2108 14.33762249214426
CZ-4B R/B               
1 28059U 03049C   26070.92792975  .00000429  00000+0  11009-3 0  9993
2 28059  98.6879  65.9205 0047333 223.9125 135.8305 14.55022392186928
CZ-2C R/B               
1 28222U 04012C   26070.71964997  .00064754  00000+0  66079-3 0  9996
2 28222  97.7222 136.2046 0012932 301.4679  58.5315 15.64774872204594
SL-16 R/B               
1 28353U 04021B   26070.86123671 -.00000265  00000+0 -11320-3 0  9991
2 28353  70.9996 227.9350 0004175   6.1397 353.9776 14.14597110123148
CZ-4B R/B               
1 28415U 04035C   26070.61068046  .00008783  00000+0  30919-3 0  9998
2 28415  97.3502 104.8303 0030743 324.4114  35.5075 15.29101543180200
CZ-2C R/B               
1 28480U 04046B   26070.72937510  .00000128  00000+0  62460-4 0  9997
2 28480  98.1980 345.5864 0139979 148.4396 212.5277 14.26992768108792
ARIANE 5 R/B            
1 28499U 04049H   26070.92317819  .00000863  00000+0  10157-3 0  9997
2 28499  98.2630 239.4637 0083786 344.6634  15.2042 14.85270195146128
CZ-2D R/B               
1 28738U 05024B   26070.95408714  .00045516  00000+0  55445-3 0  9998
2 28738  97.3602  86.1836 0005511  40.4707 319.6959 15.60370464140130
ALOS (DAICHI)           
1 28931U 06002A   26070.88561725  .00001624  00000+0  28023-3 0  9998
2 28931  98.1220  26.8300 0000852  60.0305 300.0985 14.69818058 73808
